[{"OBJECT_NAME":"ETRSS-1","OBJECT_ID":"2019-093B","EPOCH":"2026-03-09T22:36:35.084736","MEAN_MOTION":14.95232474,"ECCENTRICITY":0.00120616,"INCLINATION":97.7844,"RA_OF_ASC_NODE":153.9141,"ARG_OF_PERICENTER":31.3849,"MEAN_ANOMALY":328.8089,"EPHEMERIS_TYPE":0,"CLASSIFICATION_TYPE":"U","NORAD_CAT_ID":44880,"ELEMENT_SET_NO":999,"REV_AT_EPOCH":33722,"BSTAR":0.00018246379,"MEAN_MOTION_DOT":1.951e-5,"MEAN_MOTION_DDOT":0},{"OBJECT_NAME":"STARLINK-5475","OBJECT_ID":"2023-021AK","EPOCH":"2026-03-09T22:57:25.060320","MEAN_MOTION":14.98345501,"ECCENTRICITY":0.00035161,"INCLINATION":70.0003,"RA_OF_ASC_NODE":163.821,"ARG_OF_PERICENTER":272.1774,"MEAN_ANOMALY":87.8983,"EPHEMERIS_TYPE":0,"CLASSIFICATION_TYPE":"U","NORAD_CAT_ID":55661,"ELEMENT_SET_NO":999,"REV_AT_EPOCH":16932,"BSTAR":-0.00026487286,"MEAN_MOTION_DOT":-3.253e-5,"MEAN_MOTION_DDOT":0}]
